ORBCOMM FM37 [-]        
1 33064U 08031E   23306.31173650  .00002721  00000+0  42698-3 0  9991
2 33064  48.4408 271.7641 0006139 355.9061 164.7570 14.75331161826381
ORBCOMM FM40 [-]        
1 33065U 08031F   23306.60018096  .00003465  00000+0  52225-3 0  9999
2 33065  48.4429 261.4380 0007408   5.9146 165.0155 14.76418096826441
ORBCOMM FM109 [+]       
1 40086U 14040A   23306.32715645  .00001281  00000+0  32555-3 0  9998
2 40086  47.0042 291.3927 0000951 108.6932 251.4055 14.56041344494601
ORBCOMM FM107 [+]       
1 40087U 14040B   23306.22412127  .00001440  00000+0  36130-3 0  9997
2 40087  47.0059 292.8133 0000958  25.3568 334.7364 14.56046312494666
ORBCOMM FM104 [-]       
1 40090U 14040E   23306.41658022  .00001048  00000+0  28178-3 0  9995
2 40090  47.0065 318.7403 0017056  16.3494 343.7937 14.54590835494264
